{
  "norad_id": 61949,
  "name": "STARLINK-11424 [DTC]",
  "history": [
    {
      "epoch": "2026-03-28T22:40:20.865216Z",
      "apogee_km": 360.3731646025335,
      "perigee_km": 358.7668952465983,
      "latitude_deg": 3.534073563996711e-05,
      "longitude_deg": 109.78362703601844,
      "height_km": 360.03955212806267,
      "semi_major_axis_km": 6737.707029924565,
      "eccentricity": 0.0001192,
      "inclination_deg": 53.1571,
      "raan_deg": 276.2284,
      "arg_perigee_deg": 56.4395,
      "mean_anomaly_deg": 303.6737,
      "mean_motion_rev_day": 15.69764768
    },
    {
      "epoch": "2026-03-28T22:40:20.866080Z",
      "apogee_km": 360.37296247132235,
      "perigee_km": 358.7670973778095,
      "latitude_deg": 3.764544921502181e-05,
      "longitude_deg": 109.78362514330688,
      "height_km": 360.03966386791245,
      "semi_major_axis_km": 6737.707029924565,
      "eccentricity": 0.00011917,
      "inclination_deg": 53.1571,
      "raan_deg": 276.2284,
      "arg_perigee_deg": 56.4395,
      "mean_anomaly_deg": 303.6737,
      "mean_motion_rev_day": 15.69764768
    },
    {
      "epoch": "2026-03-29T23:07:17.159520Z",
      "apogee_km": 360.11958986598165,
      "perigee_km": 358.9378033028006,
      "latitude_deg": 2.013795496407556e-06,
      "longitude_deg": 97.02195952783855,
      "height_km": 360.77550298598214,
      "semi_major_axis_km": 6737.665696584391,
      "eccentricity": 8.77e-05,
      "inclination_deg": 53.1571,
      "raan_deg": 271.2054,
      "arg_perigee_deg": 124.296,
      "mean_anomaly_deg": 235.8141,
      "mean_motion_rev_day": 15.69779213
    },
    {
      "epoch": "2026-03-30T05:14:01.876128Z",
      "apogee_km": 360.36296044076516,
      "perigee_km": 358.8173258341294,
      "latitude_deg": 1.746958164293805e-05,
      "longitude_deg": 3.828923891958146,
      "height_km": 360.23118730051993,
      "semi_major_axis_km": 6737.7271431374475,
      "eccentricity": 0.0001147,
      "inclination_deg": 53.1569,
      "raan_deg": 269.9497,
      "arg_perigee_deg": 69.3665,
      "mean_anomaly_deg": 290.7476,
      "mean_motion_rev_day": 15.69757739
    },
    {
      "epoch": "2026-03-30T20:30:52.341408Z",
      "apogee_km": 360.2485922658252,
      "perigee_km": 358.8754492053995,
      "latitude_deg": 3.558698589638465e-05,
      "longitude_deg": 130.85371070116943,
      "height_km": 360.4988481825953,
      "semi_major_axis_km": 6737.699020735612,
      "eccentricity": 0.0001019,
      "inclination_deg": 53.1566,
      "raan_deg": 266.8123,
      "arg_perigee_deg": 91.9544,
      "mean_anomaly_deg": 268.1591,
      "mean_motion_rev_day": 15.69767567
    },
    {
      "epoch": "2026-03-31T17:54:27.024768Z",
      "apogee_km": 361.4031729442204,
      "perigee_km": 357.9534115145989,
      "latitude_deg": -3.2526631281138285e-05,
      "longitude_deg": 164.68446920700106,
      "height_km": 360.86886653098736,
      "semi_major_axis_km": 6737.815292229409,
      "eccentricity": 0.000256,
      "inclination_deg": 53.1571,
      "raan_deg": 262.4162,
      "arg_perigee_deg": 99.318,
      "mean_anomaly_deg": 260.8127,
      "mean_motion_rev_day": 15.69726934
    }
  ]
}